[{"OBJECT_NAME":"STARLINK-31162","OBJECT_ID":"2024-012E","EPOCH":"2026-03-09T08:02:33.299232","MEAN_MOTION":15.27589946,"ECCENTRICITY":0.00019066,"INCLINATION":43.0024,"RA_OF_ASC_NODE":167.0956,"ARG_OF_PERICENTER":282.4896,"MEAN_ANOMALY":77.5743,"EPHEMERIS_TYPE":0,"CLASSIFICATION_TYPE":"U","NORAD_CAT_ID":58791,"ELEMENT_SET_NO":999,"REV_AT_EPOCH":12118,"BSTAR":-1.2837709e-5,"MEAN_MOTION_DOT":-6.16e-6,"MEAN_MOTION_DDOT":0},{"OBJECT_NAME":"FLOCK 4G-15","OBJECT_ID":"2025-009BX","EPOCH":"2026-03-09T17:13:37.807680","MEAN_MOTION":15.27266411,"ECCENTRICITY":0.00036988,"INCLINATION":97.4054,"RA_OF_ASC_NODE":151.1927,"ARG_OF_PERICENTER":316.8208,"MEAN_ANOMALY":43.274,"EPHEMERIS_TYPE":0,"CLASSIFICATION_TYPE":"U","NORAD_CAT_ID":62678,"ELEMENT_SET_NO":999,"REV_AT_EPOCH":12135,"BSTAR":0.00047574812,"MEAN_MOTION_DOT":0.00012647,"MEAN_MOTION_DDOT":0}]
